{"type":"FeatureCollection","source":"Natural Earth (public domain): ne_50m_coastline, ne_50m_lakes, ne_10m_admin_1_states_provinces; built by scripts/build_weekly_map_layers.py","features":[{"type":"Feature","properties":{"role":"coast","name":"coastline"},"geometry":{"type":"LineString","coordinates":[[45.044,-16.095],[45.167,-15.983],[45.223,-15.95],[45.271,-15.962],[45.302,-16.01],[45.342,-16.037],[45.486,-15.986],[45.598,-15.993],[45.662,-15.839],[45.7,-15.814],[46.004,-15.782],[46.158,-15.738],[46.191,-15.747],[46.314,-15.905],[46.4,-15.925],[46.442,-15.896],[46.341,-15.813],[46.326,-15.767],[46.331,-15.714],[46.385,-15.6],[46.475,-15.513],[46.882,-15.23],[46.942,-15.219],[46.993,-15.243],[47.027,-15.452],[47.061,-15.456],[47.099,-15.434],[47.133,-15.362],[47.135,-15.302],[47.107,-15.244],[47.093,-15.15],[47.28,-14.943],[47.352,-14.766],[47.439,-14.703],[47.465,-14.713],[47.496,-14.818],[47.442,-14.925],[47.429,-14.996],[47.478,-15.009],[47.525,-14.992],[47.67,-14.743],[47.716,-14.68],[47.774,-14.637],[47.964,-14.673],[47.812,-14.545],[47.773,-14.37],[47.955,-14.067],[47.957,-14.004],[47.996,-13.96],[47.901,-13.858],[47.884,-13.808],[47.896,-13.731],[47.982,-13.615],[48.04,-13.596],[48.187,-13.707],[48.255,-13.719],[48.338,-13.639],[48.405,-13.538],[48.506,-13.469],[48.621,-13.426],[48.796,-13.267],[48.91,-12.936],[48.919,-12.839],[48.894,-12.722],[48.786,-12.471],[48.804,-12.44],[48.9,-12.458],[48.932,-12.439],[49.207,-12.08],[49.263,-12.08],[49.312,-12.124],[49.33,-12.189],[49.364,-12.236],[49.48,-12.348],[49.538,-12.432],[49.638,-12.637],[49.938,-13.072],[49.967,-13.27],[50.073,-13.578],[50.174,-14.04],[50.205,-14.514],[50.235,-14.732],[50.313,-14.937],[50.441,-15.149],[50.483,-15.386],[50.405,-15.629],[50.292,-15.858],[50.209,-15.96],[50.094,-15.899],[50.02,-15.802],[49.893,-15.458],[49.853,-15.439],[49.744,-15.45],[49.664,-15.522],[49.65,-15.567],[49.697,-15.811],[49.713,-16.077]]}},{"type":"Feature","properties":{"role":"coast","name":"coastline"},"geometry":{"type":"LineString","coordinates":[[54.187,12.664],[53.919,12.659],[53.825,12.625],[53.763,12.637],[53.638,12.707],[53.535,12.716],[53.431,12.664],[53.316,12.533],[53.499,12.425],[53.598,12.342],[53.719,12.319],[54.129,12.361],[54.271,12.447],[54.414,12.483],[54.45,12.523],[54.511,12.553],[54.187,12.664]]}},{"type":"Feature","properties":{"role":"coast","name":"coastline"},"geometry":{"type":"LineString","coordinates":[[56.074,26.983],[55.907,26.91],[55.758,26.948],[55.747,26.931],[55.785,26.857],[55.763,26.812],[55.532,26.71],[55.347,26.648],[55.296,26.658],[55.295,26.639],[55.312,26.593],[55.424,26.583],[55.543,26.618],[55.675,26.686],[55.747,26.692],[55.848,26.731],[55.894,26.732],[55.954,26.701],[56.095,26.801]]}},{"type":"Feature","properties":{"role":"coast","name":"coastline"},"geometry":{"type":"LineString","coordinates":[[42.06,16.804],[42.026,16.758],[42.065,16.71],[41.988,16.716],[41.947,16.749],[41.962,16.779],[41.948,16.936],[41.917,16.994],[41.86,17.003],[41.885,16.947],[41.858,16.893],[41.776,16.847],[41.802,16.779],[41.897,16.684],[41.964,16.653],[42.072,16.671],[42.158,16.571],[42.17,16.709],[42.06,16.804]]}},{"type":"Feature","properties":{"role":"coast","name":"coastline"},"geometry":{"type":"LineString","coordinates":[[40.25,15.703],[40.234,15.666],[40.183,15.643],[40.141,15.696],[40.132,15.795],[40.097,15.838],[40.043,15.875],[39.957,15.889],[40.0,15.828],[39.945,15.789],[39.94,15.745],[40.016,15.733],[40.071,15.677],[40.024,15.656],[39.947,15.696],[39.975,15.612],[40.095,15.591],[40.196,15.598],[40.305,15.577],[40.399,15.58],[40.408,15.629],[40.25,15.703]]}},{"type":"Feature","properties":{"role":"coast","name":"coastline"},"geometry":{"type":"LineString","coordinates":[[43.379,-11.614],[43.393,-11.409],[43.342,-11.368],[43.299,-11.375],[43.256,-11.432],[43.227,-11.752],[43.303,-11.844],[43.355,-11.858],[43.447,-11.915],[43.492,-11.862],[43.379,-11.614]]}},{"type":"Feature","properties":{"role":"coast","name":"coastline"},"geometry":{"type":"LineString","coordinates":[[39.488,-6.166],[39.433,-6.115],[39.368,-5.951],[39.357,-5.812],[39.309,-5.722],[39.267,-5.853],[39.192,-5.931],[39.206,-6.083],[39.182,-6.173],[39.243,-6.275],[39.313,-6.279],[39.383,-6.365],[39.424,-6.348],[39.447,-6.42],[39.481,-6.454],[39.563,-6.427],[39.573,-6.387],[39.488,-6.166]]}},{"type":"Feature","properties":{"role":"coast","name":"coastline"},"geometry":{"type":"LineString","coordinates":[[39.749,-5.444],[39.796,-5.394],[39.853,-5.255],[39.865,-4.906],[39.781,-4.945],[39.673,-4.927],[39.701,-5.114],[39.647,-5.369],[39.673,-5.407],[39.749,-5.444]]}},{"type":"Feature","properties":{"role":"coast","name":"coastline"},"geometry":{"type":"LineString","coordinates":[[40.109,-16.025],[40.109,-15.979],[40.314,-15.764],[40.559,-15.473],[40.651,-15.261],[40.653,-15.193],[40.618,-15.116],[40.642,-15.082],[40.694,-15.065],[40.701,-14.93],[40.835,-14.792],[40.845,-14.719],[40.821,-14.635],[40.818,-14.468],[40.775,-14.421],[40.727,-14.421],[40.646,-14.539],[40.64,-14.39],[40.713,-14.291],[40.716,-14.214],[40.65,-14.199],[40.603,-14.167],[40.596,-14.123],[40.591,-13.845],[40.545,-13.463],[40.583,-13.374],[40.552,-13.294],[40.57,-13.223],[40.569,-12.985],[40.437,-12.983],[40.448,-12.905],[40.553,-12.825],[40.581,-12.636],[40.548,-12.527],[40.487,-12.492],[40.523,-12.393],[40.501,-12.119],[40.532,-12.005],[40.433,-11.657],[40.465,-11.449],[40.403,-11.332],[40.421,-11.266],[40.491,-11.179],[40.545,-11.066],[40.506,-10.998],[40.516,-10.93],[40.597,-10.831],[40.487,-10.765],[40.612,-10.662],[40.517,-10.567],[40.436,-10.41],[40.389,-10.354],[40.084,-10.157],[39.984,-10.16],[39.945,-10.092],[39.864,-10.022],[39.725,-10.0],[39.784,-9.915],[39.775,-9.837],[39.728,-9.725],[39.697,-9.578],[39.625,-9.409],[39.641,-9.192],[39.451,-8.943],[39.48,-8.906],[39.488,-8.862],[39.377,-8.721],[39.304,-8.444],[39.309,-8.351],[39.34,-8.243],[39.441,-8.012],[39.428,-7.813],[39.33,-7.747],[39.287,-7.788],[39.288,-7.518],[39.353,-7.341],[39.433,-7.207],[39.519,-7.124],[39.546,-7.024],[39.472,-6.879],[39.287,-6.815],[39.228,-6.685],[39.125,-6.556],[39.067,-6.499],[38.981,-6.455],[38.874,-6.331],[38.855,-6.205],[38.805,-6.07],[38.819,-5.878],[38.911,-5.626],[38.978,-5.519],[39.119,-5.065],[39.123,-4.98],[39.202,-4.776],[39.228,-4.666],[39.288,-4.609],[39.377,-4.625],[39.491,-4.478],[39.819,-3.786],[39.861,-3.577],[39.896,-3.536],[39.992,-3.351],[40.115,-3.251],[40.128,-3.173],[40.195,-3.019],[40.18,-2.819],[40.222,-2.688],[40.279,-2.629],[40.404,-2.556],[40.644,-2.539],[40.813,-2.392],[40.82,-2.336],[40.898,-2.27],[40.922,-2.194],[40.89,-2.024],[40.952,-2.056],[40.996,-1.951],[41.107,-1.982],[41.267,-1.945],[41.387,-1.867],[41.632,-1.579],[41.732,-1.43],[41.98,-0.973],[42.219,-0.738],[42.399,-0.51],[42.466,-0.457],[42.561,-0.321],[43.468,0.622],[43.718,0.858],[44.033,1.106],[44.333,1.391],[44.92,1.81],[45.826,2.31],[46.051,2.475],[46.879,3.286],[47.511,3.968],[47.975,4.497],[48.234,4.953],[48.649,5.494],[49.049,6.174],[49.093,6.408],[49.235,6.777],[49.349,6.991],[49.57,7.297],[49.671,7.47],[49.761,7.66],[49.852,7.963],[50.103,8.2],[50.286,8.509],[50.321,8.62],[50.43,8.845],[50.638,9.109],[50.685,9.241],[50.825,9.428],[50.833,9.71],[50.874,9.924],[50.898,10.253],[50.93,10.336],[51.036,10.385],[51.209,10.431],[51.268,10.403],[51.385,10.387],[51.39,10.423],[51.369,10.475],[51.193,10.555],[51.188,10.48],[51.063,10.434],[51.032,10.445],[51.051,10.472],[51.094,10.489],[51.141,10.657],[51.122,11.077],[51.084,11.336],[51.136,11.505],[51.218,11.658],[51.255,11.831],[50.792,11.984],[50.636,11.944],[50.528,11.823],[50.466,11.728],[50.11,11.529],[49.642,11.451],[49.388,11.343],[49.062,11.271],[48.903,11.255],[48.674,11.323],[48.573,11.321],[48.439,11.29],[48.019,11.139],[47.712,11.112],[47.474,11.175],[47.405,11.174],[47.23,11.1],[46.973,10.925],[46.565,10.746],[46.46,10.734],[46.254,10.781],[46.025,10.794],[45.817,10.836],[45.696,10.804],[45.338,10.65],[44.943,10.437],[44.387,10.43],[44.279,10.472],[43.853,10.784],[43.631,11.035],[43.441,11.346],[43.162,11.566],[43.043,11.588],[42.912,11.587],[42.79,11.562],[42.653,11.51],[42.54,11.504],[42.522,11.572],[42.64,11.56],[42.799,11.739],[43.048,11.829],[43.272,11.97],[43.337,12.027],[43.38,12.091],[43.41,12.19],[43.354,12.367],[43.299,12.464],[43.131,12.66],[43.083,12.825],[42.999,12.9],[42.97,12.808],[42.796,12.864],[42.734,13.019],[42.523,13.221],[42.399,13.213],[42.346,13.398],[42.245,13.588],[41.658,13.983],[41.48,14.244],[41.176,14.62],[40.799,14.743],[40.634,14.883],[40.546,14.934],[40.437,14.964],[40.305,14.974],[40.204,15.014],[40.084,15.152],[40.058,15.217],[40.041,15.335],[39.864,15.47],[39.813,15.414],[39.79,15.319],[39.819,15.201],[39.786,15.125],[39.721,15.214],[39.631,15.453],[39.579,15.523],[39.507,15.532],[39.422,15.787],[39.299,15.921],[39.223,16.194],[39.143,16.729],[38.912,17.427],[38.574,18.073],[38.333,18.219],[38.283,18.287],[38.202,18.249],[38.074,18.41],[37.922,18.556],[37.73,18.694],[37.599,18.717],[37.532,18.753],[37.471,18.82],[37.362,19.092],[37.248,19.582],[37.263,19.792],[37.193,20.121],[37.188,20.395],[37.228,20.557],[37.173,20.732],[37.141,20.982],[37.151,21.104],[37.217,21.078],[37.257,21.039],[37.259,21.109],[37.212,21.186],[37.081,21.326],[36.927,21.587],[36.883,21.769],[36.87,22.016],[36.83,22.098],[36.415,22.394],[36.23,22.629],[35.913,22.74],[35.846,22.786],[35.698,22.946],[35.564,23.271],[35.523,23.443],[35.504,23.779],[35.541,23.921],[35.632,23.95],[35.784,23.938],[35.625,24.066],[35.478,24.155],[35.397,24.27],[35.194,24.475],[34.853,25.14],[34.679,25.443],[34.565,25.691],[34.329,26.024],[34.05,26.551],[33.959,26.649],[33.893,27.049]]}},{"type":"Feature","properties":{"role":"coast","name":"coastline"},"geometry":{"type":"LineString","coordinates":[[35.852,27.07],[36.032,26.881],[36.094,26.766],[36.25,26.595],[36.519,26.105],[36.675,26.039],[36.703,25.903],[36.763,25.751],[36.921,25.641],[37.149,25.291],[37.218,25.151],[37.266,24.96],[37.181,24.82],[37.338,24.616],[37.543,24.292],[37.713,24.274],[37.821,24.188],[37.92,24.185],[37.978,24.125],[38.099,24.058],[38.289,23.911],[38.464,23.712],[38.542,23.558],[38.706,23.306],[38.757,23.194],[38.797,23.049],[38.941,22.882],[38.883,22.882],[38.939,22.805],[39.007,22.77],[39.001,22.699],[39.062,22.592],[39.096,22.393],[39.034,22.203],[39.021,22.033],[38.988,21.882],[39.147,21.519],[39.151,21.433],[39.094,21.31],[39.276,20.974],[39.491,20.737],[39.614,20.518],[39.728,20.39],[39.884,20.293],[40.081,20.266],[40.482,19.993],[40.616,19.822],[40.759,19.755],[40.792,19.646],[40.848,19.555],[40.913,19.49],[41.116,19.082],[41.221,18.765],[41.229,18.678],[41.432,18.452],[41.508,18.256],[41.658,18.008],[41.75,17.886],[42.052,17.669],[42.294,17.435],[42.332,17.257],[42.383,17.122],[42.475,17.05],[42.544,16.96],[42.553,16.868],[42.647,16.801],[42.699,16.737],[42.726,16.653],[42.731,16.57],[42.79,16.452],[42.84,16.032],[42.717,15.655],[42.8,15.372],[42.788,15.266],[42.698,15.326],[42.658,15.233],[42.856,15.133],[42.897,15.006],[42.936,14.939],[42.937,14.898],[42.913,14.863],[42.922,14.817],[43.021,14.555],[43.006,14.483],[43.093,14.204],[43.089,14.011],[43.234,13.859],[43.282,13.693],[43.232,13.267],[43.475,12.839],[43.488,12.699],[43.634,12.744],[43.835,12.674],[43.93,12.617],[44.006,12.608],[44.112,12.639],[44.26,12.645],[44.358,12.669],[44.618,12.817],[44.755,12.764],[45.039,12.816],[45.11,12.939],[45.164,12.998],[45.394,13.067],[45.534,13.233],[45.657,13.339],[45.92,13.394],[46.203,13.424],[46.502,13.416],[46.663,13.433],[46.789,13.466],[46.976,13.547],[47.408,13.662],[47.633,13.858],[47.855,13.957],[47.916,14.013],[47.99,14.048],[48.278,13.998],[48.449,14.006],[48.594,14.046],[48.668,14.05],[48.78,14.124],[48.929,14.267],[49.005,14.355],[49.048,14.456],[49.35,14.638],[49.549,14.722],[49.906,14.828],[50.167,14.851],[50.339,14.927],[50.527,15.038],[51.015,15.141],[51.322,15.226],[51.604,15.337],[51.682,15.379],[51.749,15.44],[51.831,15.459],[52.217,15.656],[52.222,15.761],[52.174,15.957],[52.237,16.171],[52.328,16.294],[52.448,16.391],[52.581,16.47],[53.298,16.723],[53.61,16.76],[53.775,16.856],[53.954,16.918],[54.068,17.006],[54.377,17.034],[54.567,17.031],[54.772,16.965],[55.064,17.039],[55.174,17.158],[55.275,17.321],[55.296,17.382],[55.281,17.446],[55.238,17.505],[55.255,17.586],[55.479,17.843],[55.614,17.886],[55.998,17.935],[56.27,17.951]]}},{"type":"Feature","properties":{"role":"coast","name":"coastline"},"geometry":{"type":"LineString","coordinates":[[56.025,25.916],[55.941,25.794],[55.523,25.498],[55.433,25.394],[55.322,25.3],[55.304,25.237],[55.098,25.042],[54.747,24.81],[54.659,24.716],[54.624,24.621],[54.58,24.564],[54.535,24.531],[54.458,24.358],[54.397,24.278],[54.304,24.254],[54.148,24.171],[53.893,24.077],[53.802,24.069],[53.33,24.098],[53.026,24.147],[52.648,24.155],[52.511,24.113],[52.251,23.995],[52.119,23.971],[51.906,23.985],[51.843,24.011],[51.792,24.075],[51.768,24.254],[51.665,24.25],[51.605,24.338],[51.568,24.286],[51.535,24.286],[51.31,24.34],[51.37,24.477],[51.418,24.531],[51.411,24.571],[51.338,24.564],[51.268,24.607],[51.396,24.645],[51.428,24.668],[51.533,24.891],[51.587,24.965],[51.609,25.053],[51.602,25.148],[51.485,25.525],[51.527,25.682],[51.572,25.781],[51.543,25.902],[51.389,26.011],[51.262,26.153],[51.108,26.081],[51.003,25.981],[50.869,25.613],[50.763,25.445],[50.755,25.399],[50.777,25.177],[50.847,24.889],[50.804,24.789],[50.558,25.087],[50.508,25.307],[50.455,25.425],[50.281,25.566],[50.239,25.623],[50.19,25.756],[50.13,25.847],[50.081,25.961],[50.032,26.111],[50.054,26.123],[50.155,26.101],[50.214,26.308],[50.185,26.405],[50.027,26.527],[50.008,26.679],[50.026,26.699],[50.15,26.663],[49.986,26.829],[49.717,26.956],[49.538,27.152]]}},{"type":"Feature","properties":{"role":"coast","name":"coastline"},"geometry":{"type":"LineString","coordinates":[[53.342,27.004],[53.455,26.943],[53.507,26.852],[53.706,26.726],[53.823,26.708],[54.069,26.732],[54.247,26.697],[54.522,26.589],[54.645,26.509],[54.759,26.505],[54.896,26.557],[55.155,26.725],[55.294,26.786],[55.424,26.771],[55.519,26.83],[55.592,26.932],[55.65,26.978],[55.941,27.038]]}},{"type":"Feature","properties":{"role":"lake","name":"Lake Malawi"},"geometry":{"type":"LineString","coordinates":[[35.26,-14.277],[35.284,-14.365],[35.273,-14.391],[35.236,-14.401],[35.048,-14.177],[34.958,-14.148],[34.93,-14.042],[34.881,-14.012],[34.857,-14.014],[34.849,-14.035],[34.858,-14.074],[34.816,-14.178],[34.819,-14.217],[34.77,-14.254],[34.707,-14.262],[34.701,-14.237],[34.6,-14.159],[34.547,-14.048],[34.546,-13.938],[34.596,-13.846],[34.622,-13.751],[34.605,-13.669],[34.547,-13.6],[34.498,-13.567],[34.458,-13.572],[34.41,-13.53],[34.321,-13.379],[34.313,-13.346],[34.338,-13.265],[34.344,-13.158],[34.33,-12.945],[34.275,-12.825],[34.263,-12.73],[34.214,-12.684],[34.196,-12.642],[34.197,-12.481],[34.18,-12.425],[34.074,-12.353],[34.033,-12.209],[34.059,-12.049],[34.1,-11.976],[34.194,-11.88],[34.192,-11.84],[34.318,-11.679],[34.323,-11.653],[34.289,-11.425],[34.23,-11.228],[34.224,-11.167],[34.245,-11.099],[34.203,-10.614],[34.19,-10.59],[34.229,-10.517],[34.238,-10.461],[34.26,-10.448],[34.204,-10.319],[34.016,-10.098],[33.907,-9.802],[33.916,-9.713],[33.959,-9.627],[33.95,-9.565],[33.996,-9.495],[34.089,-9.538],[34.321,-9.732],[34.524,-10.03],[34.58,-10.32],[34.57,-10.38],[34.584,-10.525],[34.662,-10.71],[34.667,-10.792],[34.606,-10.99],[34.608,-11.08],[34.688,-11.177],[34.774,-11.342],[34.851,-11.352],[34.937,-11.463],[34.959,-11.577],[34.957,-11.735],[34.934,-11.871],[34.857,-12.048],[34.788,-12.094],[34.7,-12.2],[34.714,-12.279],[34.694,-12.422],[34.791,-12.643],[34.808,-12.767],[34.772,-12.87],[34.77,-12.963],[34.8,-13.044],[34.812,-13.332],[34.846,-13.366],[34.862,-13.46],[34.868,-13.701],[34.888,-13.717],[35.056,-13.743],[35.26,-14.277]]}},{"type":"Feature","properties":{"role":"lake","name":"Lake Victoria"},"geometry":{"type":"LineString","coordinates":[[34.718,-0.092],[34.813,-0.276],[34.798,-0.296],[34.703,-0.325],[34.577,-0.33],[34.478,-0.353],[34.458,-0.369],[34.475,-0.464],[34.456,-0.495],[34.425,-0.502],[34.376,-0.459],[34.217,-0.442],[34.079,-0.579],[34.06,-0.645],[34.068,-0.725],[34.163,-0.879],[34.121,-0.975],[34.07,-0.997],[34.063,-1.034],[33.932,-1.188],[33.903,-1.247],[33.907,-1.278],[33.952,-1.321],[33.942,-1.34],[33.844,-1.342],[33.829,-1.363],[33.822,-1.425],[33.915,-1.495],[33.921,-1.514],[33.791,-1.485],[33.686,-1.488],[33.646,-1.571],[33.675,-1.638],[33.602,-1.691],[33.593,-1.761],[33.489,-1.822],[33.402,-1.812],[33.366,-1.83],[33.298,-1.922],[33.45,-1.915],[33.478,-1.928],[33.524,-1.996],[33.412,-1.997],[33.374,-2.032],[33.3,-2.023],[33.233,-2.072],[33.226,-2.096],[33.276,-2.124],[33.585,-2.168],[33.753,-2.111],[33.794,-2.123],[33.81,-2.157],[33.809,-2.192],[33.767,-2.238],[33.51,-2.43],[33.432,-2.46],[33.442,-2.502],[33.416,-2.531],[33.21,-2.489],[33.067,-2.41],[32.999,-2.402],[32.945,-2.421],[32.908,-2.449],[32.892,-2.484],[32.884,-2.664],[32.963,-2.849],[32.892,-2.862],[32.76,-2.985],[32.773,-2.91],[32.764,-2.867],[32.848,-2.797],[32.862,-2.757],[32.814,-2.647],[32.824,-2.544],[32.811,-2.515],[32.703,-2.502],[32.644,-2.439],[32.548,-2.508],[32.521,-2.454],[32.44,-2.444],[32.357,-2.394],[32.32,-2.304],[32.283,-2.282],[32.24,-2.283],[32.174,-2.366],[32.096,-2.394],[32.15,-2.525],[32.13,-2.537],[32.031,-2.516],[31.986,-2.547],[31.969,-2.608],[32.003,-2.757],[31.971,-2.752],[31.918,-2.674],[31.885,-2.7],[31.848,-2.705],[31.819,-2.798],[31.801,-2.791],[31.782,-2.693],[31.815,-2.621],[31.743,-2.567],[31.735,-2.53],[31.786,-2.465],[31.781,-2.44],[31.767,-2.399],[31.675,-2.277],[31.664,-1.932],[31.763,-1.492],[31.811,-1.419],[31.826,-1.359],[31.865,-1.092],[31.849,-1.017],[31.783,-1.01],[31.723,-0.79],[31.867,-0.481],[31.994,-0.321],[32.001,-0.255],[31.933,-0.158],[31.95,-0.132],[32.033,-0.09],[32.055,-0.057],[32.159,-0.04],[32.209,0.009],[32.258,-0.005],[32.287,0.021],[32.351,0.015],[32.413,0.089],[32.438,0.093],[32.449,0.056],[32.533,0.07],[32.564,0.099],[32.588,0.193],[32.615,0.235],[32.647,0.253],[32.681,0.189],[32.711,0.179],[32.671,0.117],[32.779,0.119],[32.853,0.169],[32.879,0.169],[32.895,0.112],[32.915,0.096],[32.958,0.108],[33.07,0.193],[33.076,0.239],[33.137,0.252],[33.201,0.388],[33.187,0.428],[33.273,0.463],[33.312,0.451],[33.364,0.472],[33.332,0.369],[33.354,0.349],[33.461,0.334],[33.484,0.315],[33.485,0.293],[33.441,0.271],[33.448,0.244],[33.483,0.218],[33.533,0.207],[33.58,0.222],[33.64,0.3],[33.68,0.316],[33.713,0.308],[33.745,0.208],[33.861,0.185],[33.945,0.218],[33.975,0.213],[33.974,0.089],[34.003,-0.024],[34.059,-0.081],[34.125,-0.091],[34.108,-0.133],[34.117,-0.163],[34.226,-0.259],[34.285,-0.35],[34.31,-0.356],[34.334,-0.337],[34.37,-0.243],[34.42,-0.196],[34.538,-0.144],[34.718,-0.092]]}},{"type":"Feature","properties":{"role":"lake","name":"Lake Tanganyika"},"geometry":{"type":"LineString","coordinates":[[30.806,-8.578],[30.672,-8.503],[30.62,-8.544],[30.534,-8.579],[30.56,-8.556],[30.568,-8.514],[30.464,-8.498],[30.448,-8.449],[30.461,-8.382],[30.478,-8.355],[30.549,-8.313],[30.573,-8.262],[30.581,-8.181],[30.567,-8.115],[30.499,-8.033],[30.442,-7.997],[30.396,-7.928],[30.294,-7.873],[30.277,-7.848],[30.204,-7.587],[30.208,-7.474],[30.147,-7.299],[30.09,-7.214],[30.013,-7.145],[29.928,-7.095],[29.836,-7.063],[29.752,-6.995],[29.616,-6.822],[29.537,-6.754],[29.48,-6.633],[29.476,-6.515],[29.454,-6.517],[29.424,-6.491],[29.311,-6.191],[29.25,-6.109],[29.215,-6.088],[29.193,-6.038],[29.19,-5.915],[29.33,-5.799],[29.333,-5.662],[29.342,-5.635],[29.371,-5.63],[29.372,-5.616],[29.157,-5.236],[29.102,-5.054],[29.124,-4.586],[29.169,-4.504],[29.203,-4.511],[29.202,-4.437],[29.254,-4.101],[29.245,-4.065],[29.228,-4.071],[29.145,-4.335],[29.133,-4.343],[29.063,-4.317],[29.058,-4.286],[29.099,-4.206],[29.086,-4.092],[29.117,-3.852],[29.103,-3.788],[29.138,-3.703],[29.147,-3.617],[29.142,-3.408],[29.158,-3.37],[29.196,-3.338],[29.298,-3.355],[29.332,-3.39],[29.335,-3.663],[29.364,-3.856],[29.434,-3.977],[29.523,-4.203],[29.653,-4.42],[29.607,-4.789],[29.614,-4.881],[29.6,-4.896],[29.749,-4.984],[29.792,-5.041],[29.816,-5.152],[29.803,-5.169],[29.8,-5.257],[29.752,-5.405],[29.758,-5.467],[29.812,-5.528],[29.865,-5.63],[29.951,-5.861],[29.948,-5.899],[29.916,-5.938],[29.856,-5.98],[29.775,-6.001],[29.748,-6.03],[29.729,-6.095],[29.722,-6.244],[29.82,-6.37],[29.95,-6.498],[30.094,-6.457],[30.166,-6.483],[30.299,-6.616],[30.455,-6.856],[30.528,-6.923],[30.563,-6.993],[30.561,-7.065],[30.543,-7.104],[30.512,-7.116],[30.522,-7.166],[30.577,-7.276],[30.599,-7.376],[30.589,-7.464],[30.604,-7.542],[30.725,-7.701],[30.825,-7.911],[30.906,-8.038],[30.913,-8.075],[30.957,-8.121],[30.95,-8.19],[30.964,-8.238],[31.102,-8.385],[31.143,-8.451],[31.151,-8.551],[31.198,-8.652],[31.179,-8.742],[31.15,-8.72],[31.084,-8.776],[31.022,-8.787],[30.806,-8.578]]}},{"type":"Feature","properties":{"role":"admin1","name":"Somalia"},"geometry":{"type":"LineString","coordinates":[[46.467,6.538],[47.6,6.28],[47.35,5.75],[47.47,5.57],[47.61,5.19],[47.5,4.49],[47.841,4.341]]}},{"type":"Feature","properties":{"role":"admin1","name":"Somalia"},"geometry":{"type":"LineString","coordinates":[[47.532,7.566],[48.5,7.41],[49.03,7.71],[49.19,7.7],[49.44,7.58],[49.5,7.57],[49.641,7.409]]}},{"type":"Feature","properties":{"role":"admin1","name":"Somalia"},"geometry":{"type":"LineString","coordinates":[[44.597,4.918],[44.68,4.41],[44.8,3.86],[44.77,3.7],[44.78,3.27]]}},{"type":"Feature","properties":{"role":"admin1","name":"Somalia"},"geometry":{"type":"LineString","coordinates":[[45.39,2.15],[45.33,2.18],[45.34,2.72],[45.12,3.04],[45.07,3.25]]}},{"type":"Feature","properties":{"role":"admin1","name":"Somalia"},"geometry":{"type":"LineString","coordinates":[[45.39,2.15],[45.266,1.987]]}},{"type":"Feature","properties":{"role":"admin1","name":"Somalia"},"geometry":{"type":"LineString","coordinates":[[45.39,2.15],[45.606,2.183]]}},{"type":"Feature","properties":{"role":"admin1","name":"Somalia"},"geometry":{"type":"LineString","coordinates":[[45.518,5.541],[45.71,5.11],[46.04,5.03],[46.23,5.08],[46.21,4.94],[46.11,4.74],[46.15,4.43],[46.4,4.23],[46.39,3.89]]}},{"type":"Feature","properties":{"role":"admin1","name":"Somalia"},"geometry":{"type":"LineString","coordinates":[[42.98,1.46],[42.52,1.88],[42.4,1.95]]}},{"type":"Feature","properties":{"role":"admin1","name":"Somalia"},"geometry":{"type":"LineString","coordinates":[[42.98,1.46],[43.521,0.672]]}},{"type":"Feature","properties":{"role":"admin1","name":"Somalia"},"geometry":{"type":"LineString","coordinates":[[42.98,1.46],[43.58,1.76],[44.65,2.22],[44.62,2.48],[44.66,2.75],[44.64,2.81],[44.69,3.05],[44.66,3.25]]}},{"type":"Feature","properties":{"role":"admin1","name":"Somalia"},"geometry":{"type":"LineString","coordinates":[[42.4,1.95],[42.6,3.07],[42.93,3.04],[43.1,3.06],[43.12,3.67]]}},{"type":"Feature","properties":{"role":"admin1","name":"Somalia"},"geometry":{"type":"LineString","coordinates":[[42.4,1.95],[41.64,1.94],[41.42,1.26]]}},{"type":"Feature","properties":{"role":"admin1","name":"Somalia"},"geometry":{"type":"LineString","coordinates":[[41.42,1.26],[40.968,1.23]]}},{"type":"Feature","properties":{"role":"admin1","name":"Somalia"},"geometry":{"type":"LineString","coordinates":[[41.42,1.26],[42.43,1.32],[42.63,0.72],[42.73,0.31],[43.185,0.316]]}},{"type":"Feature","properties":{"role":"admin1","name":"Somalia"},"geometry":{"type":"LineString","coordinates":[[44.66,3.25],[44.78,3.27]]}},{"type":"Feature","properties":{"role":"admin1","name":"Somalia"},"geometry":{"type":"LineString","coordinates":[[44.66,3.25],[44.61,3.27],[44.41,3.26],[44.28,3.34],[44.31,3.39],[44.31,3.57],[44.18,3.85],[43.95,3.92],[43.88,3.92],[43.75,3.85],[43.68,3.72],[43.58,3.61],[43.41,3.57],[43.12,3.67]]}},{"type":"Feature","properties":{"role":"admin1","name":"Somalia"},"geometry":{"type":"LineString","coordinates":[[44.78,3.27],[45.07,3.25]]}},{"type":"Feature","properties":{"role":"admin1","name":"Somalia"},"geometry":{"type":"LineString","coordinates":[[48.939,9.563],[48.939,9.451],[47.979,7.997]]}},{"type":"Feature","properties":{"role":"admin1","name":"Somalia"},"geometry":{"type":"LineString","coordinates":[[48.939,9.563],[49.06,9.57],[49.08,9.14],[49.11,8.9],[49.18,8.77],[49.45,8.59],[49.68,8.58],[49.78,8.53],[49.84,8.33],[49.93,8.46],[50.05,8.44],[50.166,8.333]]}},{"type":"Feature","properties":{"role":"admin1","name":"Somalia"},"geometry":{"type":"LineString","coordinates":[[48.939,9.563],[48.939,11.249]]}},{"type":"Feature","properties":{"role":"admin1","name":"Somalia"},"geometry":{"type":"LineString","coordinates":[[46.39,3.89],[47.04,3.469]]}},{"type":"Feature","properties":{"role":"admin1","name":"Somalia"},"geometry":{"type":"LineString","coordinates":[[46.39,3.89],[46.03,3.52],[45.94,3.25],[45.27,3.2],[45.15,3.21],[45.07,3.25]]}},{"type":"Feature","properties":{"role":"admin1","name":"Somalia"},"geometry":{"type":"LineString","coordinates":[[43.12,3.67],[43.14,3.85],[42.87,4.328]]}}]}
