{"type":"FeatureCollection","features":[{"type":"Feature","properties":{"name":"Tanzania"},"bbox":[29.339998,-11.720938,40.31659,-0.95],"geometry":{"type":"Polygon","coordinates":[[[33.903711,-0.95],[34.07262,-1.05982],[37.69869,-3.09699],[37.7669,-3.67712],[39.20222,-4.67677],[38.74054,-5.90895],[38.79977,-6.47566],[39.44,-6.84],[39.47,-7.1],[39.19469,-7.7039],[39.25203,-8.00781],[39.18652,-8.48551],[39.53574,-9.11237],[39.9496,-10.0984],[40.316586,-10.317098],[40.31659,-10.3171],[39.521,-10.89688],[38.427557,-11.285202],[37.82764,-11.26879],[37.47129,-11.56876],[36.775151,-11.594537],[36.514082,-11.720938],[35.312398,-11.439146],[34.559989,-11.52002],[34.28,-10.16],[33.940838,-9.693674],[33.73972,-9.41715],[32.759375,-9.230599],[32.191865,-8.930359],[31.556348,-8.762049],[31.157751,-8.594579],[30.74001,-8.340006],[30.740015,-8.340007],[30.199997,-7.079981],[29.620032,-6.520015],[29.419993,-5.939999],[29.519987,-5.419979],[29.339998,-4.499983],[29.753512,-4.452389],[30.11632,-4.09012],[30.50554,-3.56858],[30.75224,-3.35931],[30.74301,-3.03431],[30.52766,-2.80762],[30.469674,-2.413855],[30.46967,-2.41383],[30.758309,-2.28725],[30.816135,-1.698914],[30.419105,-1.134659],[30.76986,-1.01455],[31.86617,-1.02736],[33.903711,-0.95]]]}},{"type":"Feature","properties":{"name":"Somalia"},"bbox":[40.98105,-1.68325,51.13387,12.02464],"geometry":{"type":"Polygon","coordinates":[[[41.58513,-1.68325],[40.993,-0.85829],[40.98105,2.78452],[41.855083,3.918912],[42.12861,4.23413],[42.76967,4.25259],[43.66087,4.95755],[44.9636,5.00162],[47.78942,8.003],[48.486736,8.837626],[48.93813,9.451749],[48.938233,9.9735],[48.938491,10.982327],[48.942005,11.394266],[48.948205,11.410617],[48.948205,11.410617],[49.26776,11.43033],[49.72862,11.5789],[50.25878,11.67957],[50.73202,12.0219],[51.1112,12.02464],[51.13387,11.74815],[51.04153,11.16651],[51.04531,10.6409],[50.83418,10.27972],[50.55239,9.19874],[50.07092,8.08173],[49.4527,6.80466],[48.59455,5.33911],[47.74079,4.2194],[46.56476,2.85529],[45.56399,2.04576],[44.06815,1.05283],[43.13597,0.2922],[42.04157,-0.91916],[41.81095,-1.44647],[41.58513,-1.68325]]]}},{"type":"Feature","properties":{"name":"Kenya"},"bbox":[33.893569,-4.67677,41.855083,5.506],"geometry":{"type":"Polygon","coordinates":[[[39.20222,-4.67677],[37.7669,-3.67712],[37.69869,-3.09699],[34.07262,-1.05982],[33.903711,-0.95],[33.893569,0.109814],[34.18,0.515],[34.6721,1.17694],[35.03599,1.90584],[34.59607,3.05374],[34.47913,3.5556],[34.005,4.249885],[34.620196,4.847123],[35.298007,5.506],[35.817448,5.338232],[35.817448,4.776966],[36.159079,4.447864],[36.855093,4.447864],[38.120915,3.598605],[38.43697,3.58851],[38.67114,3.61607],[38.89251,3.50074],[39.559384,3.42206],[39.85494,3.83879],[40.76848,4.25702],[41.1718,3.91909],[41.855083,3.918912],[40.98105,2.78452],[40.993,-0.85829],[41.58513,-1.68325],[40.88477,-2.08255],[40.63785,-2.49979],[40.26304,-2.57309],[40.12119,-3.27768],[39.80006,-3.68116],[39.60489,-4.34653],[39.20222,-4.67677]]]}},{"type":"Feature","properties":{"name":"Sudan"},"bbox":[21.93681,8.229188,38.41009,22],"geometry":{"type":"Polygon","coordinates":[[[24.567369,8.229188],[23.805813,8.666319],[23.459013,8.954286],[23.394779,9.265068],[23.55725,9.681218],[23.554304,10.089255],[22.977544,10.714463],[22.864165,11.142395],[22.87622,11.38461],[22.50869,11.67936],[22.49762,12.26024],[22.28801,12.64605],[21.93681,12.58818],[22.03759,12.95546],[22.29658,13.37232],[22.18329,13.78648],[22.51202,14.09318],[22.30351,14.32682],[22.56795,14.94429],[23.02459,15.68072],[23.88689,15.61084],[23.83766,19.58047],[23.85,20],[25,20.00304],[25,22],[29.02,22],[32.9,22],[36.86623,22],[37.18872,21.01885],[36.96941,20.83744],[37.1147,19.80796],[37.48179,18.61409],[37.86276,18.36786],[38.41009,17.998307],[37.904,17.42754],[37.16747,17.26314],[36.85253,16.95655],[36.75389,16.29186],[36.32322,14.82249],[36.42951,14.42211],[36.27022,13.56333],[35.86363,12.57828],[35.26049,12.08286],[34.83163,11.31896],[34.73115,10.91017],[34.25745,10.63009],[33.96162,9.58358],[33.97498,8.68456],[33.963393,9.464285],[33.824963,9.484061],[33.842131,9.981915],[33.721959,10.325262],[33.206938,10.720112],[33.086766,11.441141],[33.206938,12.179338],[32.743419,12.248008],[32.67475,12.024832],[32.073892,11.97333],[32.314235,11.681484],[32.400072,11.080626],[31.850716,10.531271],[31.352862,9.810241],[30.837841,9.707237],[29.996639,10.290927],[29.618957,10.084919],[29.515953,9.793074],[29.000932,9.604232],[28.966597,9.398224],[27.97089,9.398224],[27.833551,9.604232],[27.112521,9.638567],[26.752006,9.466893],[26.477328,9.55273],[25.962307,10.136421],[25.790633,10.411099],[25.069604,10.27376],[24.794926,9.810241],[24.537415,8.917538],[24.194068,8.728696],[23.88698,8.61973],[24.567369,8.229188]]]}},{"type":"Feature","properties":{"name":"Burundi"},"bbox":[29.024926,-4.499983,30.75224,-2.348487],"geometry":{"type":"Polygon","coordinates":[[[30.469674,-2.413855],[30.52766,-2.80762],[30.74301,-3.03431],[30.75224,-3.35931],[30.50554,-3.56858],[30.11632,-4.09012],[29.753512,-4.452389],[29.339998,-4.499983],[29.276384,-3.293907],[29.024926,-2.839258],[29.632176,-2.917858],[29.938359,-2.348487],[30.469674,-2.413855]]]}},{"type":"Feature","properties":{"name":"Eritrea"},"bbox":[36.32322,12.455416,43.081226,17.998307],"geometry":{"type":"Polygon","coordinates":[[[36.42951,14.42211],[36.32322,14.82249],[36.75389,16.29186],[36.85253,16.95655],[37.16747,17.26314],[37.904,17.42754],[38.41009,17.998307],[38.990623,16.840626],[39.26611,15.922723],[39.814294,15.435647],[41.179275,14.49108],[41.734952,13.921037],[42.276831,13.343992],[42.589576,13.000421],[43.081226,12.699639],[42.779642,12.455416],[42.35156,12.54223],[42.00975,12.86582],[41.59856,13.45209],[41.1552,13.77333],[40.8966,14.11864],[40.02625,14.51959],[39.34061,14.53155],[39.0994,14.74064],[38.51295,14.50547],[37.90607,14.95943],[37.59377,14.2131],[36.42951,14.42211]]]}},{"type":"Feature","properties":{"name":"Ethiopia"},"bbox":[32.95418,3.42206,47.78942,14.95943],"geometry":{"type":"Polygon","coordinates":[[[47.78942,8.003],[44.9636,5.00162],[43.66087,4.95755],[42.76967,4.25259],[42.12861,4.23413],[41.855083,3.918912],[41.1718,3.91909],[40.76848,4.25702],[39.85494,3.83879],[39.559384,3.42206],[38.89251,3.50074],[38.67114,3.61607],[38.43697,3.58851],[38.120915,3.598605],[36.855093,4.447864],[36.159079,4.447864],[35.817448,4.776966],[35.817448,5.338232],[35.298007,5.506],[34.70702,6.59422],[34.25032,6.82607],[34.0751,7.22595],[33.56829,7.71334],[32.95418,7.78497],[33.2948,8.35458],[33.8255,8.37916],[33.97498,8.68456],[33.96162,9.58358],[34.25745,10.63009],[34.73115,10.91017],[34.83163,11.31896],[35.26049,12.08286],[35.86363,12.57828],[36.27022,13.56333],[36.42951,14.42211],[37.59377,14.2131],[37.90607,14.95943],[38.51295,14.50547],[39.0994,14.74064],[39.34061,14.53155],[40.02625,14.51959],[40.8966,14.11864],[41.1552,13.77333],[41.59856,13.45209],[42.00975,12.86582],[42.35156,12.54223],[42,12.1],[41.66176,11.6312],[41.73959,11.35511],[41.75557,11.05091],[42.31414,11.0342],[42.55493,11.10511],[42.776852,10.926879],[42.55876,10.57258],[42.92812,10.02194],[43.29699,9.54048],[43.67875,9.18358],[46.94834,7.99688],[47.78942,8.003]]]}},{"type":"Feature","properties":{"name":"Djibouti"},"bbox":[41.66176,10.926879,43.317852,12.699639],"geometry":{"type":"Polygon","coordinates":[[[42.35156,12.54223],[42.779642,12.455416],[43.081226,12.699639],[43.317852,12.390148],[43.286381,11.974928],[42.715874,11.735641],[43.145305,11.46204],[42.776852,10.926879],[42.55493,11.10511],[42.31414,11.0342],[41.75557,11.05091],[41.73959,11.35511],[41.66176,11.6312],[42,12.1],[42.35156,12.54223]]]}},{"type":"Feature","properties":{"name":"Uganda"},"bbox":[29.579466,-1.443322,35.03599,4.249885],"geometry":{"type":"Polygon","coordinates":[[[33.903711,-0.95],[31.86617,-1.02736],[30.76986,-1.01455],[30.419105,-1.134659],[29.821519,-1.443322],[29.579466,-1.341313],[29.587838,-0.587406],[29.819503,-0.20531],[29.875779,0.59738],[30.086154,1.062313],[30.468508,1.583805],[30.85267,1.849396],[31.174149,2.204465],[30.773347,2.339883],[30.83386,3.509166],[30.833852,3.509172],[31.24556,3.7819],[31.88145,3.55827],[32.68642,3.79232],[33.39,3.79],[34.005,4.249885],[34.47913,3.5556],[34.59607,3.05374],[35.03599,1.90584],[34.6721,1.17694],[34.18,0.515],[33.893569,0.109814],[33.903711,-0.95]]]}},{"type":"Feature","properties":{"name":"Rwanda"},"bbox":[29.024926,-2.917858,30.816135,-1.134659],"geometry":{"type":"Polygon","coordinates":[[[30.419105,-1.134659],[30.816135,-1.698914],[30.758309,-2.28725],[30.46967,-2.41383],[30.469674,-2.413855],[29.938359,-2.348487],[29.632176,-2.917858],[29.024926,-2.839258],[29.117479,-2.292211],[29.254835,-2.21511],[29.291887,-1.620056],[29.579466,-1.341313],[29.821519,-1.443322],[30.419105,-1.134659]]]}},{"type":"Feature","properties":{"name":"South Sudan"},"bbox":[23.88698,3.509172,35.298007,12.248008],"geometry":{"type":"Polygon","coordinates":[[[30.833852,3.509172],[29.9535,4.173699],[29.715995,4.600805],[29.159078,4.389267],[28.696678,4.455077],[28.428994,4.287155],[27.979977,4.408413],[27.374226,5.233944],[27.213409,5.550953],[26.465909,5.946717],[26.213418,6.546603],[25.796648,6.979316],[25.124131,7.500085],[25.114932,7.825104],[24.567369,8.229188],[23.88698,8.61973],[24.194068,8.728696],[24.537415,8.917538],[24.794926,9.810241],[25.069604,10.27376],[25.790633,10.411099],[25.962307,10.136421],[26.477328,9.55273],[26.752006,9.466893],[27.112521,9.638567],[27.833551,9.604232],[27.97089,9.398224],[28.966597,9.398224],[29.000932,9.604232],[29.515953,9.793074],[29.618957,10.084919],[29.996639,10.290927],[30.837841,9.707237],[31.352862,9.810241],[31.850716,10.531271],[32.400072,11.080626],[32.314235,11.681484],[32.073892,11.97333],[32.67475,12.024832],[32.743419,12.248008],[33.206938,12.179338],[33.086766,11.441141],[33.206938,10.720112],[33.721959,10.325262],[33.842131,9.981915],[33.824963,9.484061],[33.963393,9.464285],[33.97498,8.68456],[33.8255,8.37916],[33.2948,8.35458],[32.95418,7.78497],[33.56829,7.71334],[34.0751,7.22595],[34.25032,6.82607],[34.70702,6.59422],[35.298007,5.506],[34.620196,4.847123],[34.005,4.249885],[33.39,3.79],[32.68642,3.79232],[31.88145,3.55827],[31.24556,3.7819],[30.833852,3.509172]]]}}]}